CCSDS_OMM_VERS = 2.0
CREATION_DATE  = 
ORIGINATOR     = 

OBJECT_NAME    = ISS (ZARYA)
OBJECT_ID      = 1998-067A
CENTER_NAME    = EARTH
REF_FRAME      = TEME
TIME_SYSTEM    = UTC
MEAN_ELEMENT_THEORY = SGP/SGP4

EPOCH          = 2026-03-07T18:30:03.892896
MEAN_MOTION    = 15.48514260
ECCENTRICITY   = .00081173
INCLINATION    = 51.6320
RA_OF_ASC_NODE = 81.8427
ARG_OF_PERICENTER = 167.9196
MEAN_ANOMALY   = 192.1989

EPHEMERIS_TYPE = 0
CLASSIFICATION_TYPE = U
NORAD_CAT_ID   = 25544
ELEMENT_SET_NO = 999
REV_AT_EPOCH   = 55603
BSTAR          = .26707368E-3
MEAN_MOTION_DOT = .14056E-3
MEAN_MOTION_DDOT = 0

CCSDS_OMM_VERS = 2.0
CREATION_DATE  = 
ORIGINATOR     = 

OBJECT_NAME    = POISK
OBJECT_ID      = 2009-060A
CENTER_NAME    = EARTH
REF_FRAME      = TEME
TIME_SYSTEM    = UTC
MEAN_ELEMENT_THEORY = SGP/SGP4

EPOCH          = 2026-03-07T18:30:03.892896
MEAN_MOTION    = 15.48514260
ECCENTRICITY   = .00081173
INCLINATION    = 51.6320
RA_OF_ASC_NODE = 81.8427
ARG_OF_PERICENTER = 167.9196
MEAN_ANOMALY   = 192.1989

EPHEMERIS_TYPE = 0
CLASSIFICATION_TYPE = U
NORAD_CAT_ID   = 36086
ELEMENT_SET_NO = 999
REV_AT_EPOCH   = 55444
BSTAR          = .26707368E-3
MEAN_MOTION_DOT = .14056E-3
MEAN_MOTION_DDOT = 0

CCSDS_OMM_VERS = 2.0
CREATION_DATE  = 
ORIGINATOR     = 

OBJECT_NAME    = CSS (TIANHE)
OBJECT_ID      = 2021-035A
CENTER_NAME    = EARTH
REF_FRAME      = TEME
TIME_SYSTEM    = UTC
MEAN_ELEMENT_THEORY = SGP/SGP4

EPOCH          = 2026-03-08T01:14:30.124320
MEAN_MOTION    = 15.60561665
ECCENTRICITY   = .0007
INCLINATION    = 41.4663
RA_OF_ASC_NODE = 218.1268
ARG_OF_PERICENTER = 262.9146
MEAN_ANOMALY   = 97.0897

EPHEMERIS_TYPE = 0
CLASSIFICATION_TYPE = U
NORAD_CAT_ID   = 48274
ELEMENT_SET_NO = 999
REV_AT_EPOCH   = 27735
BSTAR          = .33952E-3
MEAN_MOTION_DOT = .28649E-3
MEAN_MOTION_DDOT = 0

CCSDS_OMM_VERS = 2.0
CREATION_DATE  = 
ORIGINATOR     = 

OBJECT_NAME    = ISS (NAUKA)
OBJECT_ID      = 2021-066A
CENTER_NAME    = EARTH
REF_FRAME      = TEME
TIME_SYSTEM    = UTC
MEAN_ELEMENT_THEORY = SGP/SGP4

EPOCH          = 2026-03-07T18:30:03.892896
MEAN_MOTION    = 15.48514260
ECCENTRICITY   = .00081173
INCLINATION    = 51.6320
RA_OF_ASC_NODE = 81.8427
ARG_OF_PERICENTER = 167.9196
MEAN_ANOMALY   = 192.1989

EPHEMERIS_TYPE = 0
CLASSIFICATION_TYPE = U
NORAD_CAT_ID   = 49044
ELEMENT_SET_NO = 999
REV_AT_EPOCH   = 55445
BSTAR          = .26707368E-3
MEAN_MOTION_DOT = .14056E-3
MEAN_MOTION_DDOT = 0

CCSDS_OMM_VERS = 2.0
CREATION_DATE  = 
ORIGINATOR     = 

OBJECT_NAME    = FREGAT DEB
OBJECT_ID      = 2011-037PF
CENTER_NAME    = EARTH
REF_FRAME      = TEME
TIME_SYSTEM    = UTC
MEAN_ELEMENT_THEORY = SGP/SGP4

EPOCH          = 2026-03-05T23:25:04.037088
MEAN_MOTION    = 12.39967329
ECCENTRICITY   = .09571042
INCLINATION    = 51.6493
RA_OF_ASC_NODE = 311.8987
ARG_OF_PERICENTER = 50.8853
MEAN_ANOMALY   = 317.3235

EPHEMERIS_TYPE = 0
CLASSIFICATION_TYPE = U
NORAD_CAT_ID   = 49271
ELEMENT_SET_NO = 999
REV_AT_EPOCH   = 21223
BSTAR          = .41642496E-1
MEAN_MOTION_DOT = .28561E-3
MEAN_MOTION_DDOT = 0

CCSDS_OMM_VERS = 2.0
CREATION_DATE  = 
ORIGINATOR     = 

OBJECT_NAME    = CSS (WENTIAN)
OBJECT_ID      = 2022-085A
CENTER_NAME    = EARTH
REF_FRAME      = TEME
TIME_SYSTEM    = UTC
MEAN_ELEMENT_THEORY = SGP/SGP4

EPOCH          = 2026-03-08T01:14:30.124320
MEAN_MOTION    = 15.60561665
ECCENTRICITY   = .0007
INCLINATION    = 41.4663
RA_OF_ASC_NODE = 218.1268
ARG_OF_PERICENTER = 262.9146
MEAN_ANOMALY   = 97.0897

EPHEMERIS_TYPE = 0
CLASSIFICATION_TYPE = U
NORAD_CAT_ID   = 53239
ELEMENT_SET_NO = 999
REV_AT_EPOCH   = 27704
BSTAR          = .33952E-3
MEAN_MOTION_DOT = .28649E-3
MEAN_MOTION_DDOT = 0

CCSDS_OMM_VERS = 2.0
CREATION_DATE  = 
ORIGINATOR     = 

OBJECT_NAME    = CSS (MENGTIAN)
OBJECT_ID      = 2022-143A
CENTER_NAME    = EARTH
REF_FRAME      = TEME
TIME_SYSTEM    = UTC
MEAN_ELEMENT_THEORY = SGP/SGP4

EPOCH          = 2026-03-08T01:14:30.124320
MEAN_MOTION    = 15.60561665
ECCENTRICITY   = .0007
INCLINATION    = 41.4663
RA_OF_ASC_NODE = 218.1268
ARG_OF_PERICENTER = 262.9146
MEAN_ANOMALY   = 97.0897

EPHEMERIS_TYPE = 0
CLASSIFICATION_TYPE = U
NORAD_CAT_ID   = 54216
ELEMENT_SET_NO = 999
REV_AT_EPOCH   = 27701
BSTAR          = .33952E-3
MEAN_MOTION_DOT = .28649E-3
MEAN_MOTION_DDOT = 0

CCSDS_OMM_VERS = 2.0
CREATION_DATE  = 
ORIGINATOR     = 

OBJECT_NAME    = PROGRESS-MS 31
OBJECT_ID      = 2025-146A
CENTER_NAME    = EARTH
REF_FRAME      = TEME
TIME_SYSTEM    = UTC
MEAN_ELEMENT_THEORY = SGP/SGP4

EPOCH          = 2026-03-07T18:30:03.892896
MEAN_MOTION    = 15.48514260
ECCENTRICITY   = .00081173
INCLINATION    = 51.6320
RA_OF_ASC_NODE = 81.8427
ARG_OF_PERICENTER = 167.9196
MEAN_ANOMALY   = 192.1989

EPHEMERIS_TYPE = 0
CLASSIFICATION_TYPE = U
NORAD_CAT_ID   = 64751
ELEMENT_SET_NO = 999
REV_AT_EPOCH   = 55446
BSTAR          = .26707368E-3
MEAN_MOTION_DOT = .14056E-3
MEAN_MOTION_DDOT = 0

CCSDS_OMM_VERS = 2.0
CREATION_DATE  = 
ORIGINATOR     = 

OBJECT_NAME    = TIANZHOU-9
OBJECT_ID      = 2025-149A
CENTER_NAME    = EARTH
REF_FRAME      = TEME
TIME_SYSTEM    = UTC
MEAN_ELEMENT_THEORY = SGP/SGP4

EPOCH          = 2026-03-08T01:14:30.124320
MEAN_MOTION    = 15.60561665
ECCENTRICITY   = .0007
INCLINATION    = 41.4663
RA_OF_ASC_NODE = 218.1268
ARG_OF_PERICENTER = 262.9146
MEAN_ANOMALY   = 97.0897

EPHEMERIS_TYPE = 0
CLASSIFICATION_TYPE = U
NORAD_CAT_ID   = 64786
ELEMENT_SET_NO = 999
REV_AT_EPOCH   = 27702
BSTAR          = .33952E-3
MEAN_MOTION_DOT = .28649E-3
MEAN_MOTION_DDOT = 0

CCSDS_OMM_VERS = 2.0
CREATION_DATE  = 
ORIGINATOR     = 

OBJECT_NAME    = PROGRESS-MS 32
OBJECT_ID      = 2025-204A
CENTER_NAME    = EARTH
REF_FRAME      = TEME
TIME_SYSTEM    = UTC
MEAN_ELEMENT_THEORY = SGP/SGP4

EPOCH          = 2026-03-07T18:30:03.892896
MEAN_MOTION    = 15.48514260
ECCENTRICITY   = .00081173
INCLINATION    = 51.6320
RA_OF_ASC_NODE = 81.8427
ARG_OF_PERICENTER = 167.9196
MEAN_ANOMALY   = 192.1989

EPHEMERIS_TYPE = 0
CLASSIFICATION_TYPE = U
NORAD_CAT_ID   = 65586
ELEMENT_SET_NO = 999
REV_AT_EPOCH   = 55450
BSTAR          = .26707368E-3
MEAN_MOTION_DOT = .14056E-3
MEAN_MOTION_DDOT = 0

CCSDS_OMM_VERS = 2.0
CREATION_DATE  = 
ORIGINATOR     = 

OBJECT_NAME    = CYGNUS NG-23
OBJECT_ID      = 2025-208A
CENTER_NAME    = EARTH
REF_FRAME      = TEME
TIME_SYSTEM    = UTC
MEAN_ELEMENT_THEORY = SGP/SGP4

EPOCH          = 2026-03-07T18:30:03.892896
MEAN_MOTION    = 15.48514260
ECCENTRICITY   = .00081173
INCLINATION    = 51.6320
RA_OF_ASC_NODE = 81.8427
ARG_OF_PERICENTER = 167.9196
MEAN_ANOMALY   = 192.1989

EPHEMERIS_TYPE = 0
CLASSIFICATION_TYPE = U
NORAD_CAT_ID   = 65616
ELEMENT_SET_NO = 999
REV_AT_EPOCH   = 55451
BSTAR          = .26707368E-3
MEAN_MOTION_DOT = .14056E-3
MEAN_MOTION_DDOT = 0

CCSDS_OMM_VERS = 2.0
CREATION_DATE  = 
ORIGINATOR     = 

OBJECT_NAME    = ISS OBJECT XK
OBJECT_ID      = 1998-067XK
CENTER_NAME    = EARTH
REF_FRAME      = TEME
TIME_SYSTEM    = UTC
MEAN_ELEMENT_THEORY = SGP/SGP4

EPOCH          = 2026-03-08T03:31:16.792896
MEAN_MOTION    = 16.20157141
ECCENTRICITY   = .0002982
INCLINATION    = 51.6122
RA_OF_ASC_NODE = 54.1421
ARG_OF_PERICENTER = 121.8749
MEAN_ANOMALY   = 238.2560

EPHEMERIS_TYPE = 0
CLASSIFICATION_TYPE = U
NORAD_CAT_ID   = 65731
ELEMENT_SET_NO = 999
REV_AT_EPOCH   = 2665
BSTAR          = .14141E-2
MEAN_MOTION_DOT = .2850871E-1
MEAN_MOTION_DDOT = .11852E-4

